NORAD_CAT_ID,OBJECT_NAME,OBJECT_TYPE,EPOCH,MEAN_MOTION,ECCENTRICITY,INCLINATION,RA_OF_ASC_NODE,ARG_OF_PERICENTER,MEAN_ANOMALY,BSTAR,MEAN_MOTION_DOT,MEAN_MOTION_DDOT,TLE_LINE0,TLE_LINE1,TLE_LINE2,SEMIMAJOR_AXIS,PERIOD,APOGEE,PERIGEE,DECAYED
53277.0,STARLINK-4178,PAYLOAD,2023-11-20 11:53:49,15.08846746,0.0001563,53.2181,355.9246,92.4616,267.6555,7.7663e-05,9.48e-06,0.0,0 STARLINK-4178,1 53277U 22086AM  23324.49571589  .00000948  00000-0  77663-4 0  9998,2 53277  53.2181 355.9246 0001563  92.4616 267.6555 15.08846746 74357,6917.86,95.437,540.806,538.644,0.0
53277.0,STARLINK-4178,PAYLOAD,2023-11-20 19:50:45,15.08843765,0.0001494,53.2179,354.4381,92.4005,267.7158,5.0441e-05,5.15e-06,0.0,0 STARLINK-4178,1 53277U 22086AM  23324.82691742  .00000515  00000-0  50441-4 0  9994,2 53277  53.2179 354.4381 0001494  92.4005 267.7158 15.08843765 74407,6917.869,95.437,540.767,538.7,0.0
53277.0,STARLINK-4178,PAYLOAD,2023-11-21 11:44:36,15.0884956,0.0001629,53.2181,351.4637,97.8032,262.3145,3.9977e-05,3.48e-06,0.0,0 STARLINK-4178,1 53277U 22086AM  23325.48931328  .00000348  00000-0  39977-4 0  9999,2 53277  53.2181 351.4637 0001629  97.8032 262.3145 15.08849560 74338,6917.851,95.437,540.843,538.589,0.0
53277.0,STARLINK-4178,PAYLOAD,2023-11-22 11:35:23,15.08844627,0.0002677,53.2187,347.0015,124.2709,235.8537,6.8945e-05,8.09e-06,0.0,0 STARLINK-4178,1 53277U 22086AM  23326.48291452  .00000809  00000-0  68945-4 0  9996,2 53277  53.2187 347.0015 0002677 124.2709 235.8537 15.08844627 74659,6917.866,95.437,541.583,537.879,0.0
53277.0,STARLINK-4178,PAYLOAD,2023-11-23 01:53:52,15.08842795,0.0001906,53.2195,344.3233,112.6904,247.429,2.8491e-05,1.65e-06,0.0,0 STARLINK-4178,1 53277U 22086AM  23327.07907797  .00000165  00000-0  28491-4 0  9995,2 53277  53.2195 344.3233 0001906 112.6904 247.4290 15.08842795 74572,6917.872,95.437,541.055,538.418,0.0
53277.0,STARLINK-4178,PAYLOAD,2023-11-23 06:40:01,15.08847726,0.0001933,53.2186,343.4312,118.856,241.2626,8.2357e-05,1.023e-05,0.0,0 STARLINK-4178,1 53277U 22086AM  23327.27779222  .00001023  00000-0  82357-4 0  9992,2 53277  53.2186 343.4312 0001933 118.8560 241.2626 15.08847726 74604,6917.857,95.437,541.059,538.385,0.0
53277.0,STARLINK-4178,PAYLOAD,2023-11-24 00:09:17,15.08827994,0.0001938,53.2178,340.1593,122.3033,237.8148,-1.3972e-05,-5.1e-06,0.0,0 STARLINK-4178,1 53277U 22086AM  23328.00645097 -.00000510  00000-0 -13972-4 0  9995,2 53277  53.2178 340.1593 0001938 122.3033 237.8148 15.08827994 74717,6917.917,95.438,541.123,538.441,0.0
53277.0,STARLINK-4178,PAYLOAD,2023-11-24 06:30:50,15.08828701,0.0001812,53.2183,338.9741,121.9584,238.1585,-9.1108e-05,-1.737e-05,0.0,0 STARLINK-4178,1 53277U 22086AM  23328.27141412 -.00001737  00000-0 -91108-4 0  9995,2 53277  53.2183 338.9741 0001812 121.9584 238.1585 15.08828701 74929,6917.915,95.438,541.033,538.526,0.0
53277.0,STARLINK-4178,PAYLOAD,2023-11-25 07:56:59,15.08854946,0.0001588,53.2184,334.2176,99.7216,260.3955,0.00017247,2.459e-05,0.0,0 STARLINK-4178,1 53277U 22086AM  23329.33123850  .00002459  00000-0  17247-3 0  9990,2 53277  53.2184 334.2176 0001588  99.7216 260.3955 15.08854946 75081,6917.835,95.437,540.798,538.601,0.0
53277.0,STARLINK-4178,PAYLOAD,2023-11-25 23:50:51,15.08839927,0.0001537,53.2176,331.2448,85.9459,274.1709,0.00028722,4.286e-05,0.0,0 STARLINK-4178,1 53277U 22086AM  23329.99364589  .00004286  00000-0  28722-3 0  9998,2 53277  53.2176 331.2448 0001537  85.9459 274.1709 15.08839927 75016,6917.881,95.438,540.809,538.682,0.0
53277.0,STARLINK-4178,PAYLOAD,2023-11-26 09:23:09,15.0885583,0.0001655,53.218,329.4589,94.9431,265.1751,0.00043057,6.574e-05,0.0,0 STARLINK-4178,1 53277U 22086AM  23330.39108029  .00006574  00000-0  43057-3 0  9999,2 53277  53.2180 329.4589 0001655  94.9431 265.1751 15.08855830 75071,6917.832,95.437,540.842,538.552,0.0
53277.0,STARLINK-4178,PAYLOAD,2023-11-27 04:27:49,15.08817005,0.0001618,53.2171,325.8926,71.492,288.6248,-0.00038678,-6.434e-05,0.0,0 STARLINK-4178,1 53277U 22086AM  23331.18598658 -.00006434  00000-0 -38678-3 0  9998,2 53277  53.2171 325.8926 0001618  71.4920 288.6248 15.08817005 75194,6917.951,95.439,540.935,538.696,0.0
53277.0,STARLINK-4178,PAYLOAD,2023-11-27 06:03:13,15.08823806,0.0001546,53.2173,325.5997,89.9966,270.1203,-0.00023784,-4.07e-05,0.0,0 STARLINK-4178,1 53277U 22086AM  23331.25223511 -.00004070  00000-0 -23784-3 0  9995,2 53277  53.2173 325.5997 0001546  89.9966 270.1203 15.08823806 75378,6917.93,95.439,540.864,538.725,0.0
53277.0,STARLINK-4178,PAYLOAD,2023-11-27 23:32:26,15.08837188,0.0001524,53.2193,322.3252,85.5646,274.552,-1.0244e-05,-4.51e-06,0.0,0 STARLINK-4178,1 53277U 22086AM  23331.98086285 -.00000451  00000-0 -10244-4 0  9997,2 53277  53.2193 322.3252 0001524  85.5646 274.5520 15.08837188 75314,6917.889,95.438,540.808,538.7,0.0
53277.0,STARLINK-4178,PAYLOAD,2023-11-28 05:53:57,15.0885552,0.0001786,53.2176,321.1344,89.8774,270.2423,0.00014072,1.953e-05,0.0,0 STARLINK-4178,1 53277U 22086AM  23332.24580772  .00001953  00000-0  14072-3 0  9995,2 53277  53.2176 321.1344 0001786  89.8774 270.2423 15.08855520 75352,6917.833,95.437,540.933,538.462,0.0
53277.0,STARLINK-4178,PAYLOAD,2023-11-29 04:09:22,15.0883313,0.0001987,53.2185,316.9743,106.2988,253.8223,0.00028375,4.23e-05,0.0,0 STARLINK-4178,1 53277U 22086AM  23333.17317831  .00004230  00000-0  28375-3 0  9994,2 53277  53.2185 316.9743 0001987 106.2988 253.8223 15.08833130 75494,6917.901,95.438,541.141,538.392,0.0
53277.0,STARLINK-4178,PAYLOAD,2023-11-29 08:55:31,15.0884218,0.0001706,53.2178,316.0758,99.6429,260.4756,0.00038418,5.832e-05,0.0,0 STARLINK-4178,1 53277U 22086AM  23333.37189508  .00005832  00000-0  38418-3 0  9992,2 53277  53.2178 316.0758 0001706  99.6429 260.4756 15.08842180 75699,6917.874,95.437,540.919,538.559,0.0
53277.0,STARLINK-4178,PAYLOAD,2023-11-30 04:00:09,15.08847831,0.0002031,53.2175,312.5042,106.88,253.2415,-0.00013194,-2.388e-05,0.0,0 STARLINK-4178,1 53277U 22086AM  23334.16677389 -.00002388  00000-0 -13194-3 0  9998,2 53277  53.2175 312.5042 0002031 106.8800 253.2415 15.08847831 75644,6917.856,95.437,541.126,538.316,0.0
53277.0,STARLINK-4178,PAYLOAD,2023-12-01 03:50:57,15.08833341,0.0002011,53.2179,308.0468,103.6253,256.4963,-0.00010389,-1.941e-05,0.0,0 STARLINK-4178,1 53277U 22086AM  23335.16038530 -.00001941  00000-0 -10389-3 0  9995,2 53277  53.2179 308.0468 0002011 103.6253 256.4963 15.08833341 75795,6917.901,95.438,541.157,538.375,0.0
53277.0,STARLINK-4178,PAYLOAD,2023-12-01 22:55:34,15.08852654,0.0002088,53.217,304.4735,115.473,244.6478,0.00022511,3.297e-05,0.0,0 STARLINK-4178,1 53277U 22086AM  23335.95525638  .00003297  00000-0  22511-3 0  9996,2 53277  53.2170 304.4735 0002088 115.4730 244.6478 15.08852654 75910,6917.842,95.437,541.151,538.262,0.0
53277.0,STARLINK-4178,PAYLOAD,2023-12-02 03:41:42,15.08878346,0.0001933,53.2177,303.5845,94.92,265.2013,0.00062143,9.626e-05,0.0,0 STARLINK-4178,1 53277U 22086AM  23336.15396263  .00009626  00000-0  62143-3 0  9996,2 53277  53.2177 303.5845 0001933  94.9200 265.2013 15.08878346 75943,6917.763,95.435,540.965,538.291,0.0
53277.0,STARLINK-4178,PAYLOAD,2023-12-03 03:32:31,15.08825406,0.0001776,53.2172,299.1287,87.3016,272.8179,-0.00032777,-5.499e-05,0.0,0 STARLINK-4178,1 53277U 22086AM  23337.14758344 -.00005499  00000-0 -32777-3 0  9994,2 53277  53.2172 299.1287 0001776  87.3016 272.8179 15.08825406 76097,6917.925,95.438,541.019,538.561,0.0
53277.0,STARLINK-4178,PAYLOAD,2023-12-03 06:43:17,15.08825871,0.0001945,53.2179,298.5295,82.0184,278.1029,-0.0003922,-6.522e-05,0.0,0 STARLINK-4178,1 53277U 22086AM  23337.28006079 -.00006522  00000-0 -39220-3 0  9998,2 53277  53.2179 298.5295 0001945  82.0184 278.1029 15.08825871 76282,6917.924,95.438,541.134,538.443,0.0
53277.0,STARLINK-4178,PAYLOAD,2023-12-04 03:23:16,15.08862501,0.0001994,53.2175,294.6692,69.4293,290.6913,4.3132e-05,3.99e-06,0.0,0 STARLINK-4178,1 53277U 22086AM  23338.14116635  .00000399  00000-0  43132-4 0  9996,2 53277  53.2175 294.6692 0001994  69.4293 290.6913 15.08862501 76248,6917.812,95.436,541.056,538.297,0.0
53277.0,STARLINK-4178,PAYLOAD,2023-12-04 16:06:23,15.0883838,0.0002285,53.2169,292.2956,54.7292,305.3913,0.00045239,6.919e-05,0.0,0 STARLINK-4178,1 53277U 22086AM  23338.67110043  .00006919  00000-0  45239-3 0  9994,2 53277  53.2169 292.2956 0002285  54.7292 305.3913 15.08838380 76329,6917.885,95.438,541.331,538.17,0.0
53277.0,STARLINK-4178,PAYLOAD,2023-12-04 20:52:32,15.08841751,0.0002203,53.2182,291.4074,62.4487,297.6729,0.00033834,5.101e-05,0.0,0 STARLINK-4178,1 53277U 22086AM  23338.86981857  .00005101  00000-0  33834-3 0  9994,2 53277  53.2182 291.4074 0002203  62.4487 297.6729 15.08841751 76524,6917.875,95.437,541.264,538.216,0.0
53277.0,STARLINK-4178,PAYLOAD,2023-12-05 06:24:50,15.08834175,0.0001965,53.2183,289.6139,99.4627,260.6588,0.00026622,3.951e-05,0.0,0 STARLINK-4178,1 53277U 22086AM  23339.26725616  .00003951  00000-0  26622-3 0  9996,2 53277  53.2183 289.6139 0001965  99.4627 260.6588 15.08834175 76587,6917.898,95.438,541.123,538.404,0.0
53277.0,STARLINK-4178,PAYLOAD,2023-12-05 20:43:19,15.08836774,0.0001655,53.2196,286.939,73.7359,286.3815,1.3915e-05,-6.7e-07,0.0,0 STARLINK-4178,1 53277U 22086AM  23339.86342369 -.00000067  00000-0  13915-4 0  9990,2 53277  53.2196 286.9390 0001655  73.7359 286.3815 15.08836774 76678,6917.89,95.438,540.9,538.61,0.0
53277.0,STARLINK-4178,PAYLOAD,2023-12-06 03:04:51,15.08849876,0.0001827,53.2177,285.7509,75.2918,284.8277,-3.5903e-05,-8.6e-06,0.0,0 STARLINK-4178,1 53277U 22086AM  23340.12837641 -.00000860  00000-0 -35903-4 0  9996,2 53277  53.2177 285.7509 0001827  75.2918 284.8277 15.08849876 76543,6917.85,95.437,540.979,538.451,0.0
53277.0,STARLINK-4178,PAYLOAD,2023-12-06 06:15:37,15.08852121,0.0001799,53.2173,285.1528,96.5789,263.5407,-1.3391e-05,-5.01e-06,0.0,0 STARLINK-4178,1 53277U 22086AM  23340.26085166 -.00000501  00000-0 -13391-4 0  9997,2 53277  53.2173 285.1528 0001799  96.5789 263.5407 15.08852121 76731,6917.843,95.437,540.953,538.464,0.0
